UNKNOWN                 
1 85383U          23255.24988779  .00011345  00000+0  25452-2 0  9991
2 85383  98.6511   5.8697 0086712 315.1485  44.2725 14.54417652466666
UNKNOWN                 
1 85386U          23257.31098718  .00028528  00000+0  54916-2 0  9997
2 85386  98.6585  25.1120 0090024 230.6183 160.2633 14.60919511517654
UNKNOWN                 
1 87014U          23258.21750078  .00002996  00000+0  50716-2 0  9996
2 87014 100.5378 167.8099 0060510  43.1072 112.5790 13.45582757480436
UNKNOWN                 
1 87042U 00055    23257.92868990  .00000843  00000+0  54830-3 0  9998
2 87042  98.8120 316.8501 0043876 237.7489 121.9423 14.04726707438761
UNKNOWN                 
1 87051U 76126    23257.77026260  .00006829  00000+0  24088-2 0  9990
2 87051  65.7324  38.7240 0745699 150.8810 213.6050 13.38961592478516
UNKNOWN                 
1 87054U 75052    23256.58098603  .00002461  00000+0  16186-2 0  9996
2 87054 100.0947  28.8256 0013718  41.0928 319.1265 14.02971870500823
UNKNOWN                 
1 87065U 99025    23256.85503024  .00001739  00000+0  21309-2 0  9992
2 87065  98.7043 220.4364 0332403 249.0899 107.4361 13.45934190406052
UNKNOWN                 
1 87071U 68097    23258.10771077  .00003100  00000+0  12554-2 0  9995
2 87071  61.2241 160.1348 0541199 201.1533 156.6320 13.71041879489496
UNKNOWN                 
1 87074U 77121    23258.51483106  .00000379  00000+0  47629-3 0  9991
2 87074  66.1412  85.4938 0148135 355.8644   4.1183 13.70601035490873
UNKNOWN                 
1 87113U 76126    23257.76435365  .00014886  00000+0  18667-2 0  9996
2 87113  65.6591  13.6882 0318279 280.1499 153.8357 14.52556443513599
UNKNOWN                 
1 87129U 76077    23258.15884647  .00000213  00000+0  18859-2 0  9995
2 87129 102.2958 327.9404 0033406 154.4860 205.7861 12.42304469444870
UNKNOWN                 
1 87159U          23257.36068023  .00002071  00000+0  25262-2 0  9995
2 87159  90.3244  40.8542 0119232 165.6767 194.7821 13.62650656444827
UNKNOWN                 
1 87163U 76126    23258.25171720  .00004255  00000+0  13771-2 0  9998
2 87163  65.6018  83.3795 0681102  63.4175 303.5018 13.54528544466133
UNKNOWN                 
1 87164U          23257.36468607  .00007493  00000+0  19623-2 0  9990
2 87164  65.2074 165.1490 0126015  36.1584 324.7946 14.45193298516687
UNKNOWN                 
1 87203U          23250.38031643  .00040037  00000+0  50828-2 0  9998
2 87203  98.8823 226.9257 0037092 329.8199  30.0874 14.81042552432198
UNKNOWN                 
1 87204U          23257.42059396  .00002698  00000+0  12000-2 0  9997
2 87204  98.6164 124.0509 0048268 200.7516 159.1703 14.23101747508501
UNKNOWN                 
1 87211U          23254.08489764  .00003992  00000+0  13758-2 0  9999
2 87211  99.0159 194.3322 0066413  69.3321 355.6157 14.35245405589155
