[{"OBJECT_NAME":"UNKNOWN","OBJECT_ID":"","EPOCH":"2023-09-12T05:59:50.305056","MEAN_MOTION":14.54417652,"ECCENTRICITY":0.0086712,"INCLINATION":98.6511,"RA_OF_ASC_NODE":5.8697,"ARG_OF_PERICENTER":315.1485,"MEAN_ANOMALY":44.2725,"EPHEMERIS_TYPE":0,"CLASSIFICATION_TYPE":"U","NORAD_CAT_ID":85383,"ELEMENT_SET_NO":999,"REV_AT_EPOCH":46666,"BSTAR":0.0025452,"MEAN_MOTION_DOT":0.00011345,"MEAN_MOTION_DDOT":0},{"OBJECT_NAME":"UNKNOWN","OBJECT_ID":"","EPOCH":"2023-09-14T07:27:49.292352","MEAN_MOTION":14.60919511,"ECCENTRICITY":0.0090024,"INCLINATION":98.6585,"RA_OF_ASC_NODE":25.112,"ARG_OF_PERICENTER":230.6183,"MEAN_ANOMALY":160.2633,"EPHEMERIS_TYPE":0,"CLASSIFICATION_TYPE":"U","NORAD_CAT_ID":85386,"ELEMENT_SET_NO":999,"REV_AT_EPOCH":51765,"BSTAR":0.0054916,"MEAN_MOTION_DOT":0.00028528,"MEAN_MOTION_DDOT":0},{"OBJECT_NAME":"UNKNOWN","OBJECT_ID":"","EPOCH":"2023-09-15T05:13:12.067392","MEAN_MOTION":13.45582757,"ECCENTRICITY":0.006051,"INCLINATION":100.5378,"RA_OF_ASC_NODE":167.8099,"ARG_OF_PERICENTER":43.1072,"MEAN_ANOMALY":112.579,"EPHEMERIS_TYPE":0,"CLASSIFICATION_TYPE":"U","NORAD_CAT_ID":87014,"ELEMENT_SET_NO":999,"REV_AT_EPOCH":48043,"BSTAR":0.0050716,"MEAN_MOTION_DOT":2.996e-5,"MEAN_MOTION_DDOT":0},{"OBJECT_NAME":"UNKNOWN","OBJECT_ID":"2000-055","EPOCH":"2023-09-14T22:17:18.807360","MEAN_MOTION":14.04726707,"ECCENTRICITY":0.0043876,"INCLINATION":98.812,"RA_OF_ASC_NODE":316.8501,"ARG_OF_PERICENTER":237.7489,"MEAN_ANOMALY":121.9423,"EPHEMERIS_TYPE":0,"CLASSIFICATION_TYPE":"U","NORAD_CAT_ID":87042,"ELEMENT_SET_NO":999,"REV_AT_EPOCH":43876,"BSTAR":0.0005483,"MEAN_MOTION_DOT":8.43e-6,"MEAN_MOTION_DDOT":0},{"OBJECT_NAME":"UNKNOWN","OBJECT_ID":"1976-126","EPOCH":"2023-09-14T18:29:10.688640","MEAN_MOTION":13.38961592,"ECCENTRICITY":0.0745699,"INCLINATION":65.7324,"RA_OF_ASC_NODE":38.724,"ARG_OF_PERICENTER":150.881,"MEAN_ANOMALY":213.605,"EPHEMERIS_TYPE":0,"CLASSIFICATION_TYPE":"U","NORAD_CAT_ID":87051,"ELEMENT_SET_NO":999,"REV_AT_EPOCH":47851,"BSTAR":0.0024088,"MEAN_MOTION_DOT":6.829e-5,"MEAN_MOTION_DDOT":0},{"OBJECT_NAME":"UNKNOWN","OBJECT_ID":"1975-052","EPOCH":"2023-09-13T13:56:37.192992","MEAN_MOTION":14.0297187,"ECCENTRICITY":0.0013718,"INCLINATION":100.0947,"RA_OF_ASC_NODE":28.8256,"ARG_OF_PERICENTER":41.0928,"MEAN_ANOMALY":319.1265,"EPHEMERIS_TYPE":0,"CLASSIFICATION_TYPE":"U","NORAD_CAT_ID":87054,"ELEMENT_SET_NO":999,"REV_AT_EPOCH":50082,"BSTAR":0.0016186,"MEAN_MOTION_DOT":2.461e-5,"MEAN_MOTION_DDOT":0},{"OBJECT_NAME":"UNKNOWN","OBJECT_ID":"1999-025","EPOCH":"2023-09-13T20:31:14.612736","MEAN_MOTION":13.4593419,"ECCENTRICITY":0.0332403,"INCLINATION":98.7043,"RA_OF_ASC_NODE":220.4364,"ARG_OF_PERICENTER":249.0899,"MEAN_ANOMALY":107.4361,"EPHEMERIS_TYPE":0,"CLASSIFICATION_TYPE":"U","NORAD_CAT_ID":87065,"ELEMENT_SET_NO":999,"REV_AT_EPOCH":40605,"BSTAR":0.0021309,"MEAN_MOTION_DOT":1.739e-5,"MEAN_MOTION_DDOT":0},{"OBJECT_NAME":"UNKNOWN","OBJECT_ID":"1968-097","EPOCH":"2023-09-15T02:35:06.210528","MEAN_MOTION":13.71041879,"ECCENTRICITY":0.0541199,"INCLINATION":61.2241,"RA_OF_ASC_NODE":160.1348,"ARG_OF_PERICENTER":201.1533,"MEAN_ANOMALY":156.632,"EPHEMERIS_TYPE":0,"CLASSIFICATION_TYPE":"U","NORAD_CAT_ID":87071,"ELEMENT_SET_NO":999,"REV_AT_EPOCH":48949,"BSTAR":0.0012554,"MEAN_MOTION_DOT":3.1e-5,"MEAN_MOTION_DDOT":0},{"OBJECT_NAME":"UNKNOWN","OBJECT_ID":"1977-121","EPOCH":"2023-09-15T12:21:21.403584","MEAN_MOTION":13.70601035,"ECCENTRICITY":0.0148135,"INCLINATION":66.1412,"RA_OF_ASC_NODE":85.4938,"ARG_OF_PERICENTER":355.8644,"MEAN_ANOMALY":4.1183,"EPHEMERIS_TYPE":0,"CLASSIFICATION_TYPE":"U","NORAD_CAT_ID":87074,"ELEMENT_SET_NO":999,"REV_AT_EPOCH":49087,"BSTAR":0.00047629,"MEAN_MOTION_DOT":3.79e-6,"MEAN_MOTION_DDOT":0},{"OBJECT_NAME":"UNKNOWN","OBJECT_ID":"1976-126","EPOCH":"2023-09-14T18:20:40.155360","MEAN_MOTION":14.52556443,"ECCENTRICITY":0.0318279,"INCLINATION":65.6591,"RA_OF_ASC_NODE":13.6882,"ARG_OF_PERICENTER":280.1499,"MEAN_ANOMALY":153.8357,"EPHEMERIS_TYPE":0,"CLASSIFICATION_TYPE":"U","NORAD_CAT_ID":87113,"ELEMENT_SET_NO":999,"REV_AT_EPOCH":51359,"BSTAR":0.0018667,"MEAN_MOTION_DOT":0.00014886,"MEAN_MOTION_DDOT":0},{"OBJECT_NAME":"UNKNOWN","OBJECT_ID":"1976-077","EPOCH":"2023-09-15T03:48:44.335008","MEAN_MOTION":12.42304469,"ECCENTRICITY":0.0033406,"INCLINATION":102.2958,"RA_OF_ASC_NODE":327.9404,"ARG_OF_PERICENTER":154.486,"MEAN_ANOMALY":205.7861,"EPHEMERIS_TYPE":0,"CLASSIFICATION_TYPE":"U","NORAD_CAT_ID":87129,"ELEMENT_SET_NO":999,"REV_AT_EPOCH":44487,"BSTAR":0.0018859,"MEAN_MOTION_DOT":2.13e-6,"MEAN_MOTION_DDOT":0},{"OBJECT_NAME":"UNKNOWN","OBJECT_ID":"","EPOCH":"2023-09-14T08:39:22.771872","MEAN_MOTION":13.62650656,"ECCENTRICITY":0.0119232,"INCLINATION":90.3244,"RA_OF_ASC_NODE":40.8542,"ARG_OF_PERICENTER":165.6767,"MEAN_ANOMALY":194.7821,"EPHEMERIS_TYPE":0,"CLASSIFICATION_TYPE":"U","NORAD_CAT_ID":87159,"ELEMENT_SET_NO":999,"REV_AT_EPOCH":44482,"BSTAR":0.0025262,"MEAN_MOTION_DOT":2.071e-5,"MEAN_MOTION_DDOT":0},{"OBJECT_NAME":"UNKNOWN","OBJECT_ID":"1976-126","EPOCH":"2023-09-15T06:02:28.366080","MEAN_MOTION":13.54528544,"ECCENTRICITY":0.0681102,"INCLINATION":65.6018,"RA_OF_ASC_NODE":83.3795,"ARG_OF_PERICENTER":63.4175,"MEAN_ANOMALY":303.5018,"EPHEMERIS_TYPE":0,"CLASSIFICATION_TYPE":"U","NORAD_CAT_ID":87163,"ELEMENT_SET_NO":999,"REV_AT_EPOCH":46613,"BSTAR":0.0013771,"MEAN_MOTION_DOT":4.255e-5,"MEAN_MOTION_DDOT":0},{"OBJECT_NAME":"UNKNOWN","OBJECT_ID":"","EPOCH":"2023-09-14T08:45:08.876448","MEAN_MOTION":14.45193298,"ECCENTRICITY":0.0126015,"INCLINATION":65.2074,"RA_OF_ASC_NODE":165.149,"ARG_OF_PERICENTER":36.1584,"MEAN_ANOMALY":324.7946,"EPHEMERIS_TYPE":0,"CLASSIFICATION_TYPE":"U","NORAD_CAT_ID":87164,"ELEMENT_SET_NO":999,"REV_AT_EPOCH":51668,"BSTAR":0.0019623,"MEAN_MOTION_DOT":7.493e-5,"MEAN_MOTION_DDOT":0},{"OBJECT_NAME":"UNKNOWN","OBJECT_ID":"","EPOCH":"2023-09-07T09:07:39.339552","MEAN_MOTION":14.81042552,"ECCENTRICITY":0.0037092,"INCLINATION":98.8823,"RA_OF_ASC_NODE":226.9257,"ARG_OF_PERICENTER":329.8199,"MEAN_ANOMALY":30.0874,"EPHEMERIS_TYPE":0,"CLASSIFICATION_TYPE":"U","NORAD_CAT_ID":87203,"ELEMENT_SET_NO":999,"REV_AT_EPOCH":43219,"BSTAR":0.0050828,"MEAN_MOTION_DOT":0.00040037,"MEAN_MOTION_DDOT":0},{"OBJECT_NAME":"UNKNOWN","OBJECT_ID":"","EPOCH":"2023-09-14T10:05:39.318144","MEAN_MOTION":14.23101747,"ECCENTRICITY":0.0048268,"INCLINATION":98.6164,"RA_OF_ASC_NODE":124.0509,"ARG_OF_PERICENTER":200.7516,"MEAN_ANOMALY":159.1703,"EPHEMERIS_TYPE":0,"CLASSIFICATION_TYPE":"U","NORAD_CAT_ID":87204,"ELEMENT_SET_NO":999,"REV_AT_EPOCH":50850,"BSTAR":0.0012,"MEAN_MOTION_DOT":2.698e-5,"MEAN_MOTION_DDOT":0},{"OBJECT_NAME":"UNKNOWN","OBJECT_ID":"","EPOCH":"2023-09-11T02:02:15.156096","MEAN_MOTION":14.35245405,"ECCENTRICITY":0.0066413,"INCLINATION":99.0159,"RA_OF_ASC_NODE":194.3322,"ARG_OF_PERICENTER":69.3321,"MEAN_ANOMALY":355.6157,"EPHEMERIS_TYPE":0,"CLASSIFICATION_TYPE":"U","NORAD_CAT_ID":87211,"ELEMENT_SET_NO":999,"REV_AT_EPOCH":58915,"BSTAR":0.0013758,"MEAN_MOTION_DOT":3.992e-5,"MEAN_MOTION_DDOT":0}]
